#cP2017  6  3  0  0  0.00000000      96 ORBIT IGS14 HLM  IGS
## 1951 518400.00000000   900.00000000 57907 0.0000000000000
+   32   G01G02G03G04G05G06G07G08G09G10G11G12G13G14G15G16G17
+        G18G19G20G21G22G23G24G25G26G27G28G29G30G31G32  0  0
+          0  0  0  0  0  0  0  0  0  0  0  0  0  0  0  0  0
+          0  0  0  0  0  0  0  0  0  0  0  0  0  0  0  0  0
+          0  0  0  0  0  0  0  0  0  0  0  0  0  0  0  0  0
++         2  2  2  0  2  2  2  2  2  2  2  2  2  2  3  2  3
++         2  2  2  2  2  2  2  2  2  2  2  2  2  2  2  0  0
++         0  0  0  0  0  0  0  0  0  0  0  0  0  0  0  0  0
++         0  0  0  0  0  0  0  0  0  0  0  0  0  0  0  0  0
++         0  0  0  0  0  0  0  0  0  0  0  0  0  0  0  0  0
%c G  cc GPS ccc cccc cccc cccc cccc ccccc ccccc ccccc ccccc
%c cc cc ccc ccc cccc cccc cccc cccc ccccc ccccc ccccc ccccc
%f  1.2500000  1.025000000  0.00000000000  0.000000000000000
%f  0.0000000  0.000000000  0.00000000000  0.000000000000000
%i    0    0    0    0      0      0      0      0         0
%i    0    0    0    0      0      0      0      0         0
/* RAPID ORBIT COMBINATION FROM WEIGHTED AVERAGE OF:        
/* cod emr esa gfz jpl ngs sio usn                          
/* REFERENCED TO IGS TIME (IGST) AND TO WEIGHTED MEAN POLE: 
/* PCV:IGS14_1930 OL/AL:FES2004  NONE     Y  ORB:CMB CLK:CMB
*  2017  6  3 19 30  0.00000000
PG01  13384.603428 -15310.644479  16821.311605     55.480434  6  3  6  94       
PG02 -14418.405517  -7419.364455 -20586.051262    406.100316  8  5  3 108       
PG03  22088.378291 -13761.942590  -5220.667785    -96.992856  5     7  92       
PG04  10647.173594  12901.641015 -20439.817397 999999.999999
PG05 -23040.785801    -45.053965 -13476.316032    -43.059623  4  4  6  63       
PG06  -7219.078487 -21579.364452 -13662.718168    359.576284  5  6  5  69       
PG07   6770.155606 -24889.394244  -5097.090427    343.985680  5  9  6 111       
PG08  21318.810327   1794.643377  15852.930545    -61.934282     6  2  85       
PG09   2871.495419 -16167.964875 -20894.461845    377.067703  6  7  5  95       
PG10   4389.309382  14696.949615  21707.939689    -35.839514  3  8  1  90       
PG11  13560.450760  -9932.926501  20009.454342   -692.744685  4  6  5  93       
PG12 -24649.306480   9585.367923   -497.639095    382.193740  5  5  6  92       
PG13 -21916.117213  -9886.433276  11121.210042    -84.126410  5 10  5 114       
PG14  17934.482126  19290.794332   4332.313789    -73.090205  6  9  7 107       
PG15 -19624.743219   3244.268692  17604.967787   -351.094970  5  9  6  97       
PG16  22484.060188   2114.659668 -14433.123667     34.327861  5  9  4 120       
PG17 -11633.145170 -20434.660688  12856.857691   -176.510799  8 10  6 135       
PG18  -5105.708286  18458.840764  18911.536511    618.489683  4  7  5 113       
PG19 -17214.381225 -19429.082389   4606.039926   -501.164525  6  8    118       
PG20 -23318.236103  12704.473072   -520.431595    474.751238  6  6  3 116       
PG21  -1190.379201  26468.745993    834.715932   -503.126320  9  9  6  88       
PG22  24806.375357  -8613.827399   4437.960155    -10.944327     4  4 101       
PG23  14256.600958  -8195.734392 -20690.643195   -212.949648  7  4  6 108       
PG24 -14165.551927  12830.892597  18256.092290    -35.722367  5  5  4 108       
PG25 -16289.957666  16588.915276 -12790.441456   -398.560147  7  4  7  95       
PG26  14967.721938   8717.919575 -20165.215154   -496.167832  7  7  2 118       
PG27  23173.119087  11761.159812   5971.089814    269.260265  6  6  7 115       
PG28    338.623923 -15567.683751  22146.162672    618.042317  5  9  8 132       
PG29  -6288.026391  13745.168136 -21850.651613    598.429607  5  8  6  71       
PG30  -1028.974505 -25446.655390   7282.444443    155.059493  5 10  7 118       
PG31   7918.166394  19913.118143 -15362.572919    196.983387  6  8  5 128       
PG32  13742.152834  19725.347776  11371.319701   -431.101413  2  1  6  96       
*  2017  6  3 19 45  0.00000000
PG01  13376.295839 -13255.310688  18503.142367     55.480839  7  3  5  96       
PG02 -14269.591833  -9822.889392 -19714.230878    406.093144  8  6  2 118       
PG03  22593.972232 -13719.211938  -2410.002964    -96.990836  5     7 100       
PG04  10086.727693  15148.718820 -19217.265268 999999.999999
PG05 -21663.674932   -966.303816 -15558.064483    -43.058196  4  6  5  90       
PG06  -6922.269746 -22993.430230 -11309.608704    359.580788  5  6  5 100       
PG07   6970.549487 -24096.290109  -7849.843181    343.981623  5  8  7 110       
PG08  22624.754942   2866.086215  13746.795989    -61.935516     6  3  90       
PG09   4918.483713 -14872.460863 -21468.961592    377.074940  6  8  5 115       
PG10   2162.864400  15734.422441  21302.469579    -35.829471  3  8  2 103       
PG11  14400.823334  -7628.241923  20412.505791   -692.747094  4  6  5  95       
PG12 -24602.951395   9360.610033   2422.742151    382.193097  5  5  6 100       
PG13 -22640.649267 -10792.662025   8553.869576    -84.127567  6 10  6 115       
PG14  17309.903004  19081.694331   7082.324442    -73.091033  6  9  7 120       
PG15 -21207.094611   2100.784788  15910.069076   -351.095693  6  9  7  97       
PG16  20908.662079   2834.950261 -16509.886681     34.328401  6  9  4 125       
PG17 -10323.574795 -19619.545983  15097.968951   -176.509114  8 10  7 139       
PG18  -6947.151902  19241.418947  17422.263612    618.491230  4  7  5 103       
PG19 -16515.015190 -19139.205120   7399.803752   -501.163291  6  8    131       
PG20 -23325.785205  12298.786388  -3295.406653    474.752613  6  6  4 117       
PG21  -1511.040210  26307.721998  -1985.155701   -503.124322  9  9  6  99       
PG22  24408.692053  -8012.592333   7108.767145    -10.955315     4  4 102       
PG23  16176.045771  -6815.991216 -19809.868429   -212.950388  7  3  7 112       
PG24 -14228.559696  10632.851154  19587.101609    -35.722146  6  6  5 108       
PG25 -17549.417718  16982.875951 -10323.254128   -398.566134  7  5  7  88       
PG26  12893.904026   9838.514272 -21055.018726   -496.163194  7  7    115       
PG27  23499.785738  12215.360113   3162.568659    269.266460  6  6  7 117       
PG28   2546.205902 -16378.172466  21382.783873    618.045161  5  9  8 134       
PG29  -8283.765125  12229.415437 -22082.282493    598.426751  4  8  6  78       
PG30   -650.164885 -26083.398429   4553.629684    155.058469  6 10  6 114       
PG31   7540.067652  21539.165703 -13181.881604    196.981211  6  7  5 129       
PG32  12437.006606  19104.257716  13695.872477   -431.110247  3  1  6 112       
*  2017  6  3 20  0  0.00000000
PG01  13472.209611 -11030.217377  19860.786367     55.481223  7  4  5  93       
PG02 -14235.329994 -12105.347802 -18490.801802    406.086200  8  6    120       
PG03  22820.784525 -13546.748064    442.223766    -96.988865  5     6  98       
PG04   9680.540972  17260.811729 -17660.525512 999999.999999
PG05 -20144.664997  -2065.640640 -17375.915420    -43.056634  5  6  5  81       
PG06  -6704.235691 -24143.267399  -8761.473809    359.585334  6  6  6  86       
PG07   7200.724922 -23006.711772 -10463.190686    343.977501  6  8  7 112       
PG08  23769.015382   3739.815942  11405.887742    -61.935784  2  6  4  78       
PG09   7066.824539 -13660.914678 -21674.720339    377.082168  5  8  5 105       
PG10     50.290677  16854.033685  20530.921980    -35.819554  3  7  2  92       
PG11  15344.478108  -5335.473626  20446.305085   -692.749333  4  6  4  99       
PG12 -24271.689111   8987.700711   5300.813261    382.192416  5  6  6 106       
PG13 -23174.214106 -11475.395627   5838.297178    -84.128778  7 10  6 115       
PG14  16429.945913  18730.567962   9712.613337    -73.092404  7  8  6 122       
PG15 -22655.715531   1129.462957  13942.420307   -351.096075  7 10  7  87       
PG16  19178.832499   3737.066799 -18309.802136     34.328725  6 10  4 121       
PG17  -8774.856787 -18748.443828  17086.798870   -176.507853  8 10  7 141       
PG18  -8600.475260  20016.269514  15643.446095    618.492719  5  7  5 110       
PG19 -15547.239152 -18703.108934  10062.981324   -501.161901  7  8  1 131       
PG20 -23097.087268  11719.866834  -6013.767246    474.753584  6  6  4 121       
PG21  -1852.826158  25843.122294  -4770.260329   -503.122275  9  9  6 109       
PG22  23790.026068  -7242.409948   9658.547149    -10.966311     4  3 110       
PG23  18054.340439  -5596.481598 -18584.637514   -212.950909  6  4  7 101       
PG24 -14401.448299   8310.386731  20576.532518    -35.722877  6  6  6 110       
PG25 -18533.417173  17303.164108  -7677.478216   -398.572153  6  4  7  91       
PG26  10810.780121  11105.473465 -21583.234382   -496.158452  7  7    116       
PG27  23575.456350  12487.826607    300.292685    269.272639  7  6  7 120       
PG28   4611.136067 -17272.915562  20271.230605    618.047893  6  9  8 130       
PG29 -10364.552037  10823.680670 -21934.248861    598.423537  5  7  5  85       
PG30   -327.170865 -26425.206340   1745.781743    155.057422  6 10  4 118       
PG31   7259.140208  22921.296823 -10768.998296    196.979154  5  7  5 131       
PG32  10886.421796  18425.105541  15785.611470   -431.119107  4  1  7 106       
EOF
